{
  "type": "FeatureCollection",
  "features": [
    {
      "type": "Feature",
      "properties": {
        "nombre": "recorrido"
      },
      "geometry": {
        "type": "LineString",
        "coordinates": [
          [
            -58.89691700580224,
            -32.69612560687106
          ],
          [
            -58.89691700580224,
            -32.69592193659428
          ],
          [
            -58.89659708268944,
            -32.695650024586676
          ],
          [
            -58.89659708268944,
            -32.69639636530404
          ],
          [
            -58.89627715957664,
            -32.696667123737015
          ],
          [
            -58.89627715957664,
            -32.69537811257907
          ],
          [
            -58.89595723646384,
            -32.695106200571466
          ],
          [
            -58.89595723646384,
            -32.69693788217
          ],
          [
            -58.89563731335104,
            -32.69720864060297
          ],
          [
            -58.89563731335104,
            -32.69483428856386
          ],
          [
            -58.89531739023824,
            -32.69456237655626
          ],
          [
            -58.89531739023824,
            -32.69721592720344
          ],
          [
            -58.89499746712544,
            -32.696964477510384
          ],
          [
            -58.89499746712544,
            -32.69471782412196
          ],
          [
            -58.894677544012644,
            -32.69497985868232
          ],
          [
            -58.894677544012644,
            -32.69671302781734
          ],
          [
            -58.89435762089985,
            -32.69646157812429
          ],
          [
            -58.89435762089985,
            -32.69524189324269
          ],
          [
            -58.89403769778704,
            -32.69550392780305
          ],
          [
            -58.89403769778704,
            -32.69621012843125
          ],
          [
            -58.89371777467424,
            -32.6959586787382
          ],
          [
            -58.89371777467424,
            -32.69576596236342
          ]
        ]
      }
    }
  ]
}